[{"OBJECT_NAME":"STARLINK-2346","OBJECT_ID":"2021-021AD","EPOCH":"2026-03-10T00:00:02.999808","MEAN_MOTION":15.23438347,"ECCENTRICITY":9.608e-5,"INCLINATION":53.1284,"RA_OF_ASC_NODE":279.4044,"ARG_OF_PERICENTER":111.4357,"MEAN_ANOMALY":162.0341,"EPHEMERIS_TYPE":0,"CLASSIFICATION_TYPE":"U","NORAD_CAT_ID":47887,"ELEMENT_SET_NO":999,"REV_AT_EPOCH":579,"BSTAR":0.037660031,"MEAN_MOTION_DOT":0.00987392,"MEAN_MOTION_DDOT":0},{"OBJECT_NAME":"OBJECT D","OBJECT_ID":"2024-085D","EPOCH":"2026-03-09T22:53:13.410816","MEAN_MOTION":15.33413141,"ECCENTRICITY":0.00152451,"INCLINATION":97.3312,"RA_OF_ASC_NODE":145.3953,"ARG_OF_PERICENTER":54.9672,"MEAN_ANOMALY":305.2998,"EPHEMERIS_TYPE":0,"CLASSIFICATION_TYPE":"U","NORAD_CAT_ID":59680,"ELEMENT_SET_NO":999,"REV_AT_EPOCH":10244,"BSTAR":0.00049264705,"MEAN_MOTION_DOT":0.00015903,"MEAN_MOTION_DDOT":0}]
